stk.v.4.3 

BEGIN Ephemeris 
 
NumberOfEphemerisPoints		146 
ScenarioEpoch	    2 Jan 2020  7:33:54.322004020 
InterpolationMethod		Lagrange 
InterpolationOrder		5 
CentralBody				Earth 
CoordinateSystem			TEME 
CoordinateSystemEpoch	  2 Jan 2020  7:33:54.322004020 
DistanceUnit			Kilometers 
 
EphemerisTimePosVel 
 
       0.00000000   -1377.37551234   -7025.09528903       0.03263749  0.461589421 -0.081163809  7.448755724
 END Ephemeris 
